[{"OBJECT_NAME":"GSAT0218 (GALILEO 22)","OBJECT_ID":"2017-079D","EPOCH":"2026-03-03T13:49:52.269888","MEAN_MOTION":1.70474504,"ECCENTRICITY":0.0001914,"INCLINATION":55.1051,"RA_OF_ASC_NODE":224.4052,"ARG_OF_PERICENTER":304.2573,"MEAN_ANOMALY":55.6627,"EPHEMERIS_TYPE":0,"CLASSIFICATION_TYPE":"U","NORAD_CAT_ID":43058,"ELEMENT_SET_NO":999,"REV_AT_EPOCH":5121,"BSTAR":0,"MEAN_MOTION_DOT":1.0e-7,"MEAN_MOTION_DDOT":0},{"OBJECT_NAME":"GOES 17","OBJECT_ID":"2018-022A","EPOCH":"2026-03-04T04:27:38.801664","MEAN_MOTION":1.00270371,"ECCENTRICITY":0.0002262,"INCLINATION":0.6676,"RA_OF_ASC_NODE":87.5597,"ARG_OF_PERICENTER":221.3824,"MEAN_ANOMALY":190.3972,"EPHEMERIS_TYPE":0,"CLASSIFICATION_TYPE":"U","NORAD_CAT_ID":43226,"ELEMENT_SET_NO":999,"REV_AT_EPOCH":2937,"BSTAR":0,"MEAN_MOTION_DOT":-1.94e-6,"MEAN_MOTION_DDOT":0},{"OBJECT_NAME":"GSAT0221 (GALILEO 25)","OBJECT_ID":"2018-060A","EPOCH":"2026-02-28T13:07:14.911104","MEAN_MOTION":1.70475369,"ECCENTRICITY":0.00058048,"INCLINATION":57.2051,"RA_OF_ASC_NODE":344.7173,"ARG_OF_PERICENTER":306.7848,"MEAN_ANOMALY":53.1689,"EPHEMERIS_TYPE":0,"CLASSIFICATION_TYPE":"U","NORAD_CAT_ID":43564,"ELEMENT_SET_NO":999,"REV_AT_EPOCH":4731,"BSTAR":0,"MEAN_MOTION_DOT":-1.05e-6,"MEAN_MOTION_DDOT":0},{"OBJECT_NAME":"GSAT0222 (GALILEO 26)","OBJECT_ID":"2018-060B","EPOCH":"2026-02-24T15:50:30.088608","MEAN_MOTION":1.70474973,"ECCENTRICITY":0.0004435,"INCLINATION":57.2093,"RA_OF_ASC_NODE":344.8256,"ARG_OF_PERICENTER":285.482,"MEAN_ANOMALY":74.4799,"EPHEMERIS_TYPE":0,"CLASSIFICATION_TYPE":"U","NORAD_CAT_ID":43565,"ELEMENT_SET_NO":999,"REV_AT_EPOCH":4729,"BSTAR":0,"MEAN_MOTION_DOT":-9.2e-7,"MEAN_MOTION_DDOT":0},{"OBJECT_NAME":"GSAT0219 (GALILEO 23)","OBJECT_ID":"2018-060C","EPOCH":"2026-02-22T12:50:02.521824","MEAN_MOTION":1.70475208,"ECCENTRICITY":0.0005774,"INCLINATION":57.2094,"RA_OF_ASC_NODE":344.8846,"ARG_OF_PERICENTER":308.6957,"MEAN_ANOMALY":51.2673,"EPHEMERIS_TYPE":0,"CLASSIFICATION_TYPE":"U","NORAD_CAT_ID":43566,"ELEMENT_SET_NO":999,"REV_AT_EPOCH":4723,"BSTAR":0,"MEAN_MOTION_DOT":-8.2e-7,"MEAN_MOTION_DDOT":0},{"OBJECT_NAME":"GSAT0220 (GALILEO 24)","OBJECT_ID":"2018-060D","EPOCH":"2026-02-27T10:45:41.962176","MEAN_MOTION":1.70475159,"ECCENTRICITY":0.0005301,"INCLINATION":57.2075,"RA_OF_ASC_NODE":344.7516,"ARG_OF_PERICENTER":308.5821,"MEAN_ANOMALY":51.3768,"EPHEMERIS_TYPE":0,"CLASSIFICATION_TYPE":"U","NORAD_CAT_ID":43567,"ELEMENT_SET_NO":999,"REV_AT_EPOCH":4730,"BSTAR":0,"MEAN_MOTION_DOT":-1.02e-6,"MEAN_MOTION_DDOT":0},{"OBJECT_NAME":"BEIDOU-3 M13","OBJECT_ID":"2018-072A","EPOCH":"2026-03-02T03:28:31.522656","MEAN_MOTION":1.86230769,"ECCENTRICITY":0.00088851,"INCLINATION":56.5306,"RA_OF_ASC_NODE":66.1905,"ARG_OF_PERICENTER":307.5967,"MEAN_ANOMALY":52.3573,"EPHEMERIS_TYPE":0,"CLASSIFICATION_TYPE":"U","NORAD_CAT_ID":43622,"ELEMENT_SET_NO":999,"REV_AT_EPOCH":5066,"BSTAR":0,"MEAN_MOTION_DOT":-7.0e-8,"MEAN_MOTION_DDOT":0},{"OBJECT_NAME":"BEIDOU-3 M14","OBJECT_ID":"2018-072B","EPOCH":"2026-03-02T00:14:47.067072","MEAN_MOTION":1.86230813,"ECCENTRICITY":0.00063444,"INCLINATION":56.5324,"RA_OF_ASC_NODE":66.189,"ARG_OF_PERICENTER":328.5825,"MEAN_ANOMALY":31.415,"EPHEMERIS_TYPE":0,"CLASSIFICATION_TYPE":"U","NORAD_CAT_ID":43623,"ELEMENT_SET_NO":999,"REV_AT_EPOCH":5065,"BSTAR":0,"MEAN_MOTION_DOT":-6.0e-8,"MEAN_MOTION_DDOT":0},{"OBJECT_NAME":"GPS BIII-1","OBJECT_ID":"2018-109A","EPOCH":"2026-03-03T13:16:28.837920","MEAN_MOTION":2.00556711,"ECCENTRICITY":0.0037895,"INCLINATION":55.6145,"RA_OF_ASC_NODE":96.3528,"ARG_OF_PERICENTER":198.2737,"MEAN_ANOMALY":333.998,"EPHEMERIS_TYPE":0,"CLASSIFICATION_TYPE":"U","NORAD_CAT_ID":43873,"ELEMENT_SET_NO":999,"REV_AT_EPOCH":5295,"BSTAR":0,"MEAN_MOTION_DOT":1.9e-7,"MEAN_MOTION_DDOT":0},{"OBJECT_NAME":"METEOR-M2 2","OBJECT_ID":"2019-038A","EPOCH":"2026-03-04T03:43:32.806848","MEAN_MOTION":14.24331864,"ECCENTRICITY":0.0001198,"INCLINATION":98.9072,"RA_OF_ASC_NODE":48.9303,"ARG_OF_PERICENTER":14.0025,"MEAN_ANOMALY":346.1186,"EPHEMERIS_TYPE":0,"CLASSIFICATION_TYPE":"U","NORAD_CAT_ID":44387,"ELEMENT_SET_NO":999,"REV_AT_EPOCH":34634,"BSTAR":0.000185,"MEAN_MOTION_DOT":3.82e-6,"MEAN_MOTION_DDOT":0},{"OBJECT_NAME":"GPS BIII-2","OBJECT_ID":"2019-056A","EPOCH":"2026-03-04T04:31:28.685280","MEAN_MOTION":2.00568296,"ECCENTRICITY":0.0058029,"INCLINATION":55.6848,"RA_OF_ASC_NODE":335.3179,"ARG_OF_PERICENTER":198.1481,"MEAN_ANOMALY":333.1946,"EPHEMERIS_TYPE":0,"CLASSIFICATION_TYPE":"U","NORAD_CAT_ID":44506,"ELEMENT_SET_NO":999,"REV_AT_EPOCH":4796,"BSTAR":0,"MEAN_MOTION_DOT":-9.9e-7,"MEAN_MOTION_DDOT":0},{"OBJECT_NAME":"BEIDOU-3 M24","OBJECT_ID":"2019-061A","EPOCH":"2026-03-03T11:05:32.553312","MEAN_MOTION":1.86228787,"ECCENTRICITY":0.00086079,"INCLINATION":54.3994,"RA_OF_ASC_NODE":186.2929,"ARG_OF_PERICENTER":21.3432,"MEAN_ANOMALY":338.6489,"EPHEMERIS_TYPE":0,"CLASSIFICATION_TYPE":"U","NORAD_CAT_ID":44542,"ELEMENT_SET_NO":999,"REV_AT_EPOCH":4382,"BSTAR":0,"MEAN_MOTION_DOT":-1.7e-7,"MEAN_MOTION_DDOT":0},{"OBJECT_NAME":"BEIDOU-3 M23","OBJECT_ID":"2019-061B","EPOCH":"2026-03-03T07:40:19.297056","MEAN_MOTION":1.8622717,"ECCENTRICITY":0.00050771,"INCLINATION":54.3976,"RA_OF_ASC_NODE":186.266,"ARG_OF_PERICENTER":14.221,"MEAN_ANOMALY":162.4807,"EPHEMERIS_TYPE":0,"CLASSIFICATION_TYPE":"U","NORAD_CAT_ID":44543,"ELEMENT_SET_NO":999,"REV_AT_EPOCH":4382,"BSTAR":0,"MEAN_MOTION_DOT":-1.8e-7,"MEAN_MOTION_DDOT":0},{"OBJECT_NAME":"BEIDOU-3 M22","OBJECT_ID":"2019-078A","EPOCH":"2026-02-28T01:54:59.619744","MEAN_MOTION":1.86231871,"ECCENTRICITY":0.00072213,"INCLINATION":54.0347,"RA_OF_ASC_NODE":303.6688,"ARG_OF_PERICENTER":34.9561,"MEAN_ANOMALY":325.1493,"EPHEMERIS_TYPE":0,"CLASSIFICATION_TYPE":"U","NORAD_CAT_ID":44793,"ELEMENT_SET_NO":999,"REV_AT_EPOCH":4261,"BSTAR":0,"MEAN_MOTION_DOT":-3.9e-7,"MEAN_MOTION_DDOT":0},{"OBJECT_NAME":"BEIDOU-3 M21","OBJECT_ID":"2019-078B","EPOCH":"2026-03-03T10:35:11.477184","MEAN_MOTION":1.86227535,"ECCENTRICITY":0.00058853,"INCLINATION":54.0047,"RA_OF_ASC_NODE":303.5128,"ARG_OF_PERICENTER":39.3589,"MEAN_ANOMALY":320.7432,"EPHEMERIS_TYPE":0,"CLASSIFICATION_TYPE":"U","NORAD_CAT_ID":44794,"ELEMENT_SET_NO":999,"REV_AT_EPOCH":4268,"BSTAR":0,"MEAN_MOTION_DOT":-5.5e-7,"MEAN_MOTION_DDOT":0},{"OBJECT_NAME":"ELEKTRO-L 3","OBJECT_ID":"2019-095A","EPOCH":"2026-03-04T02:25:01.698240","MEAN_MOTION":1.00270485,"ECCENTRICITY":0.0001616,"INCLINATION":0.0462,"RA_OF_ASC_NODE":309.8649,"ARG_OF_PERICENTER":23.2921,"MEAN_ANOMALY":300.9071,"EPHEMERIS_TYPE":0,"CLASSIFICATION_TYPE":"U","NORAD_CAT_ID":44903,"ELEMENT_SET_NO":999,"REV_AT_EPOCH":2265,"BSTAR":0,"MEAN_MOTION_DOT":-1.08e-6,"MEAN_MOTION_DDOT":0},{"OBJECT_NAME":"GPS BIII-3","OBJECT_ID":"2020-041A","EPOCH":"2026-03-04T01:17:54.447360","MEAN_MOTION":2.0056064,"ECCENTRICITY":0.0061381,"INCLINATION":56.6057,"RA_OF_ASC_NODE":33.0224,"ARG_OF_PERICENTER":205.259,"MEAN_ANOMALY":171.1803,"EPHEMERIS_TYPE":0,"CLASSIFICATION_TYPE":"U","NORAD_CAT_ID":45854,"ELEMENT_SET_NO":999,"REV_AT_EPOCH":4193,"BSTAR":0,"MEAN_MOTION_DOT":-8.1e-7,"MEAN_MOTION_DDOT":0}]
